STARLINK-2022           
1 47643U 21012Z   23208.22905647  .00007647  00000+0  53175-3 0  9997
2 47643  53.0544  25.3436 0002237  92.0414 268.0831 15.06396714136105
